[{"OBJECT_NAME":"NORSAT 4","OBJECT_ID":"2025-009CX","EPOCH":"2026-03-09T18:37:49.764288","MEAN_MOTION":14.94638948,"ECCENTRICITY":0.00023654,"INCLINATION":97.7094,"RA_OF_ASC_NODE":149.232,"ARG_OF_PERICENTER":53.4991,"MEAN_ANOMALY":306.6447,"EPHEMERIS_TYPE":0,"CLASSIFICATION_TYPE":"U","NORAD_CAT_ID":62702,"ELEMENT_SET_NO":999,"REV_AT_EPOCH":6251,"BSTAR":0.00032689863,"MEAN_MOTION_DOT":3.485e-5,"MEAN_MOTION_DDOT":0},{"OBJECT_NAME":"SKYCRAFT-4B","OBJECT_ID":"2025-154D","EPOCH":"2026-03-09T23:31:04.324224","MEAN_MOTION":14.96290027,"ECCENTRICITY":0.00045249,"INCLINATION":97.6762,"RA_OF_ASC_NODE":135.4663,"ARG_OF_PERICENTER":218.6003,"MEAN_ANOMALY":141.4895,"EPHEMERIS_TYPE":0,"CLASSIFICATION_TYPE":"U","NORAD_CAT_ID":64872,"ELEMENT_SET_NO":999,"REV_AT_EPOCH":3420,"BSTAR":0.00083632264,"MEAN_MOTION_DOT":9.402e-5,"MEAN_MOTION_DDOT":0}]
